{
  "type": "FeatureCollection",
  "features": [
    {
      "type": "Feature",
      "properties": {
        "norad_id": 30505,
        "name": "FENGYUN 1C DEB",
        "group": "fengyun-1c-debris",
        "lat": 79.80500712705044,
        "lon": 19.076995334297706,
        "alt_km": 832.9361291006862,
        "timestamp": "2025-12-26T03:50:12.370059+00:00",
        "meta_object_name": "FENGYUN 1C DEB",
        "meta_object_id": "1999-025AHT",
        "meta_epoch": "2025-12-24T21:29:08.348064",
        "meta_mean_motion": 14.22120215,
        "meta_eccentricity": 0.0064314,
        "meta_inclination": 98.925,
        "meta_ra_of_asc_node": 78.7011,
        "meta_arg_of_pericenter": 207.6722,
        "meta_mean_anomaly": 247.2138,
        "meta_ephemeris_type": 0,
        "meta_classification_type": "U",
        "meta_norad_cat_id": 30505,
        "meta_element_set_no": 999,
        "meta_rev_at_epoch": 97096,
        "meta_bstar": 0.0017897,
        "meta_mean_motion_dot": 4.004e-05,
        "meta_mean_motion_ddot": 0,
        "tle_line1": "1 30505U 99025AHT 25358.89523551  .00004004  00000+0  17897-2 0  9990",
        "tle_line2": "2 30505  98.9250  78.7011 0064314 207.6722 247.2138 14.22120215970964"
      },
      "geometry": {
        "type": "Point",
        "coordinates": [
          19.076995334297706,
          79.80500712705044
        ]
      }
    },
    {
      "type": "Feature",
      "properties": {
        "norad_id": 30506,
        "name": "FENGYUN 1C DEB",
        "group": "fengyun-1c-debris",
        "lat": -5.8853170123582,
        "lon": -176.06345278901256,
        "alt_km": 895.6256030614059,
        "timestamp": "2025-12-26T03:50:12.370070+00:00",
        "meta_object_name": "FENGYUN 1C DEB",
        "meta_object_id": "1999-025AHU",
        "meta_epoch": "2025-12-24T17:10:02.627616",
        "meta_mean_motion": 14.08663853,
        "meta_eccentricity": 0.00698106,
        "meta_inclination": 98.757,
        "meta_ra_of_asc_node": 3.4441,
        "meta_arg_of_pericenter": 313.9368,
        "meta_mean_anomaly": 111.0174,
        "meta_ephemeris_type": 0,
        "meta_classification_type": "U",
        "meta_norad_cat_id": 30506,
        "meta_element_set_no": 999,
        "meta_rev_at_epoch": 96990,
        "meta_bstar": 0.00024361839,
        "meta_mean_motion_dot": 3.85e-06,
        "meta_mean_motion_ddot": 0,
        "tle_line1": "1 30506U 99025AHU 25358.71530819  .00000385  00000+0  24362-3 0  9991",
        "tle_line2": "2 30506  98.7570   3.4441 0069810 313.9368 111.0174 14.08663853969907"
      },
      "geometry": {
        "type": "Point",
        "coordinates": [
          -176.06345278901256,
          -5.8853170123582
        ]
      }
    },
    {
      "type": "Feature",
      "properties": {
        "norad_id": 30507,
        "name": "FENGYUN 1C DEB",
        "group": "fengyun-1c-debris",
        "lat": 16.240842478676896,
        "lon": -112.6091266680741,
        "alt_km": 764.3857084943775,
        "timestamp": "2025-12-26T03:50:12.370081+00:00",
        "meta_object_name": "FENGYUN 1C DEB",
        "meta_object_id": "1999-025AHV",
        "meta_epoch": "2025-12-25T15:53:42.611136",
        "meta_mean_motion": 14.13232334,
        "meta_eccentricity": 0.0128355,
        "meta_inclination": 99.013,
        "meta_ra_of_asc_node": 64.2398,
        "meta_arg_of_pericenter": 140.1665,
        "meta_mean_anomaly": 12.6298,
        "meta_ephemeris_type": 0,
        "meta_classification_type": "U",
        "meta_norad_cat_id": 30507,
        "meta_element_set_no": 999,
        "meta_rev_at_epoch": 96680,
        "meta_bstar": 0.0010235,
        "meta_mean_motion_dot": 2.029e-05,
        "meta_mean_motion_ddot": 0,
        "tle_line1": "1 30507U 99025AHV 25359.66229874  .00002029  00000+0  10235-2 0  9993",
        "tle_line2": "2 30507  99.0130  64.2398 0128355 140.1665  12.6298 14.13232334966801"
      },
      "geometry": {
        "type": "Point",
        "coordinates": [
          -112.6091266680741,
          16.240842478676896
        ]
      }
    },
    {
      "type": "Feature",
      "properties": {
        "norad_id": 30509,
        "name": "FENGYUN 1C DEB",
        "group": "fengyun-1c-debris",
        "lat": 68.32072249028649,
        "lon": -150.8312068114338,
        "alt_km": 806.9775145738431,
        "timestamp": "2025-12-26T03:50:12.370091+00:00",
        "meta_object_name": "FENGYUN 1C DEB",
        "meta_object_id": "1999-025AHX",
        "meta_epoch": "2025-12-24T02:45:50.090976",
        "meta_mean_motion": 14.07725961,
        "meta_eccentricity": 0.01024574,
        "meta_inclination": 98.4648,
        "meta_ra_of_asc_node": 229.2516,
        "meta_arg_of_pericenter": 31.4768,
        "meta_mean_anomaly": 121.2979,
        "meta_ephemeris_type": 0,
        "meta_classification_type": "U",
        "meta_norad_cat_id": 30509,
        "meta_element_set_no": 999,
        "meta_rev_at_epoch": 95882,
        "meta_bstar": 0.0022392549,
        "meta_mean_motion_dot": 3.936e-05,
        "meta_mean_motion_ddot": 0,
        "tle_line1": "1 30509U 99025AHX 25358.11516309  .00003936  00000+0  22393-2 0  9992",
        "tle_line2": "2 30509  98.4648 229.2516 0102457  31.4768 121.2979 14.07725961958828"
      },
      "geometry": {
        "type": "Point",
        "coordinates": [
          -150.8312068114338,
          68.32072249028649
        ]
      }
    },
    {
      "type": "Feature",
      "properties": {
        "norad_id": 30510,
        "name": "FENGYUN 1C DEB",
        "group": "fengyun-1c-debris",
        "lat": 9.484106776746247,
        "lon": 11.058541004820711,
        "alt_km": 878.3484525327431,
        "timestamp": "2025-12-26T03:50:12.370101+00:00",
        "meta_object_name": "FENGYUN 1C DEB",
        "meta_object_id": "1999-025AHY",
        "meta_epoch": "2025-12-25T13:12:27.203040",
        "meta_mean_motion": 14.12911893,
        "meta_eccentricity": 0.0078686,
        "meta_inclination": 99.2447,
        "meta_ra_of_asc_node": 11.9886,
        "meta_arg_of_pericenter": 130.5785,
        "meta_mean_anomaly": 21.1704,
        "meta_ephemeris_type": 0,
        "meta_classification_type": "U",
        "meta_norad_cat_id": 30510,
        "meta_element_set_no": 999,
        "meta_rev_at_epoch": 96755,
        "meta_bstar": 0.001333,
        "meta_mean_motion_dot": 2.51e-05,
        "meta_mean_motion_ddot": 0,
        "tle_line1": "1 30510U 99025AHY 25359.55031485  .00002510  00000+0  13330-2 0  9998",
        "tle_line2": "2 30510  99.2447  11.9886 0078686 130.5785  21.1704 14.12911893967559"
      },
      "geometry": {
        "type": "Point",
        "coordinates": [
          11.058541004820711,
          9.484106776746247
        ]
      }
    },
    {
      "type": "Feature",
      "properties": {
        "norad_id": 30514,
        "name": "FENGYUN 1C DEB",
        "group": "fengyun-1c-debris",
        "lat": 64.09683308923226,
        "lon": -138.92057655617444,
        "alt_km": 707.1732347020925,
        "timestamp": "2025-12-26T03:50:12.370111+00:00",
        "meta_object_name": "FENGYUN 1C DEB",
        "meta_object_id": "1999-025AJC",
        "meta_epoch": "2025-12-25T18:56:58.299360",
        "meta_mean_motion": 14.34397246,
        "meta_eccentricity": 0.0174123,
        "meta_inclination": 98.412,
        "meta_ra_of_asc_node": 22.9785,
        "meta_arg_of_pericenter": 55.4821,
        "meta_mean_anomaly": 306.2667,
        "meta_ephemeris_type": 0,
        "meta_classification_type": "U",
        "meta_norad_cat_id": 30514,
        "meta_element_set_no": 999,
        "meta_rev_at_epoch": 98412,
        "meta_bstar": 0.00051498,
        "meta_mean_motion_dot": 1.673e-05,
        "meta_mean_motion_ddot": 0,
        "tle_line1": "1 30514U 99025AJC 25359.78956365  .00001673  00000+0  51498-3 0  9997",
        "tle_line2": "2 30514  98.4120  22.9785 0174123  55.4821 306.2667 14.34397246984122"
      },
      "geometry": {
        "type": "Point",
        "coordinates": [
          -138.92057655617444,
          64.09683308923226
        ]
      }
    },
    {
      "type": "Feature",
      "properties": {
        "norad_id": 30515,
        "name": "FENGYUN 1C DEB",
        "group": "fengyun-1c-debris",
        "lat": 54.505771504777435,
        "lon": 66.8192763806719,
        "alt_km": 968.9685041249259,
        "timestamp": "2025-12-26T03:50:12.370121+00:00",
        "meta_object_name": "FENGYUN 1C DEB",
        "meta_object_id": "1999-025AJD",
        "meta_epoch": "2025-12-25T10:31:08.812416",
        "meta_mean_motion": 13.6383456,
        "meta_eccentricity": 0.0496961,
        "meta_inclination": 98.509,
        "meta_ra_of_asc_node": 234.067,
        "meta_arg_of_pericenter": 41.0415,
        "meta_mean_anomaly": 136.9768,
        "meta_ephemeris_type": 0,
        "meta_classification_type": "U",
        "meta_norad_cat_id": 30515,
        "meta_element_set_no": 999,
        "meta_rev_at_epoch": 93503,
        "meta_bstar": 0.00098676,
        "meta_mean_motion_dot": 1.784e-05,
        "meta_mean_motion_ddot": 0,
        "tle_line1": "1 30515U 99025AJD 25359.43829644  .00001784  00000+0  98676-3 0  9991",
        "tle_line2": "2 30515  98.5090 234.0670 0496961  41.0415 136.9768 13.63834560935038"
      },
      "geometry": {
        "type": "Point",
        "coordinates": [
          66.8192763806719,
          54.505771504777435
        ]
      }
    }
  ]
}